KUIPER-00265            
1 67159U 25301AC  26062.32331894  .00004729  00000+0  64843-3 0  9997
2 67159  51.9020 113.7637 0000665  39.6252 320.4758 14.79966340 12549
KUIPER-00159            
1 67764U 26030A   26062.97041066  .00040343  00000+0  11574-2 0  9993
2 67764  51.8844 246.7428 0004542  29.0732 331.0506 15.35467872  4216
KUIPER-00160            
1 67765U 26030B   26062.97146199  .00037898  00000+0  10936-2 0  9999
2 67765  51.8809 246.7423 0004875  39.4095 320.7245 15.35313874  4216
KUIPER-00177            
1 67766U 26030C   26063.02519725  .00043960  00000+0  12286-2 0  9993
2 67766  51.8829 246.3596 0001042  12.2736 347.8275 15.36255572  4225
KUIPER-00178            
1 67767U 26030D   26062.97312954  .00044566  00000+0  12848-2 0  9999
2 67767  51.8832 246.7586 0006062  28.8252 331.3068 15.35263573  4212
KUIPER-00180            
1 67768U 26030E   26063.00071023  .00032574  00000+0  10379-2 0  9997
2 67768  51.8795 246.9286 0014816  51.7634 308.4682 15.32154209  4214
KUIPER-00197            
1 67769U 26030F   26062.96217292  .00042452  00000+0  11919-2 0  9999
2 67769  51.8832 246.6868 0001243  52.2356 307.8743 15.36128157  4215
KUIPER-00198            
1 67770U 26030G   26062.96670109  .00044292  00000+0  12569-2 0  9997
2 67770  51.8811 246.7128 0003089  31.3522 328.7648 15.35772174  4216
KUIPER-00199            
1 67771U 26030H   26062.98690984  .00038618  00000+0  11564-2 0  9992
2 67771  51.8801 246.8406 0010375  44.4164 315.7651 15.34100711  4210
KUIPER-00200            
1 67772U 26030J   26063.01949262  .00033500  00000+0  92473-3 0  9998
2 67772  51.8805 246.3197 0001434 210.1934 149.8970 15.36767621  4222
KUIPER-00203            
1 67773U 26030K   26063.16670139 -.00037199  00000+0 -14876-2 0  9999
2 67773  51.8811 246.1413 0011892  45.0228 129.7842 15.24396171  2801
KUIPER-00205            
1 67774U 26030L   26063.02796427  .00034270  00000+0  96575-3 0  9996
2 67774  51.8808 246.3732 0002598   4.7853 355.3157 15.36111127  4226
KUIPER-00208            
1 67775U 26030M   26062.99834241 -.00021402  00000+0 -65526-3 0  9996
2 67775  51.8821 246.9204 0013955  45.8139 314.3990 15.32722477  4215
KUIPER-00209            
1 67776U 26030N   26063.00217429  .00013323  00000+0  44442-3 0  9998
2 67776  51.8812 246.9431 0012972  49.4583 310.7529 15.31309371  4210
KUIPER-00213            
1 67777U 26030P   26063.06424198  .00043780  00000+0  13733-2 0  9996
2 67777  51.8791 246.6037 0015174  47.7343 312.4926 15.32509291  4223
KUIPER-00214            
1 67778U 26030Q   26063.02191932  .00040490  00000+0  11228-2 0  9992
2 67778  51.8840 246.3407 0000850 206.2102 153.8841 15.36535174  4223
KUIPER-00215            
1 67779U 26030R   26062.98539278  .00041270  00000+0  12310-2 0  9996
2 67779  51.8835 246.8397 0010097  42.8753 317.3018 15.34195112  4215
KUIPER-00218            
1 67780U 26030S   26062.97649103  .00042593  00000+0  12423-2 0  9990
2 67780  51.8830 246.7800 0006550  33.7669 326.3733 15.34915337  4217
KUIPER-00220            
1 67781U 26030T   26062.98220385  .00039185  00000+0  11594-2 0  9990
2 67781  51.8803 246.8105 0008265  39.5261 320.6326 15.34491237  4217
KUIPER-00222            
1 67782U 26030U   26063.00250321  .00064532  00000+0  20244-2 0  9994
2 67782  51.8795 246.9383 0016157  45.1256 315.1037 15.32317149  4218
KUIPER-00223            
1 67783U 26030V   26062.98850642  .00040157  00000+0  12052-2 0  9998
2 67783  51.8820 246.8565 0012314  43.4500 316.7454 15.33988481  4217
KUIPER-00225            
1 67784U 26030W   26062.96821461  .00032094  00000+0  91937-3 0  9995
2 67784  51.8807 246.7207 0003944  24.4994 335.6178 15.35627080  4210
KUIPER-00226            
1 67785U 26030X   26063.01275176  .00025997  00000+0  85065-3 0  9998
2 67785  51.8806 247.0057 0019587  56.6269 303.6586 15.31342902  4210
KUIPER-00259            
1 67786U 26030Y   26062.97843213  .00040010  00000+0  11714-2 0  9998
2 67786  51.8804 246.7862 0008216  32.7983 327.3512 15.34812461  4211
KUIPER-00260            
1 67787U 26030Z   26063.02613134  .00048725  00000+0  13621-2 0  9993
2 67787  51.8795 246.3600 0000860  57.1311 302.9757 15.36201626  4138
KUIPER-00262            
1 67788U 26030AA  26063.02289474  .00041680  00000+0  11562-2 0  9995
2 67788  51.8809 246.3425 0000373 140.5415 219.5598 15.36509894  4225
KUIPER-00266            
1 67789U 26030AB  26063.01702592  .00005669  00000+0  19753-3 0  9994
2 67789  51.8809 247.0299 0023033  56.2581 304.0593 15.30951202  4210
KUIPER-00268            
1 67790U 26030AC  26062.96579298  .00042377  00000+0  12046-2 0  9998
2 67790  51.8845 246.7128 0002413  31.6910 328.4221 15.35740564  4211
KUIPER-00270            
1 67791U 26030AD  26062.98344661  .00039643  00000+0  11759-2 0  9997
2 67791  51.8803 246.8182 0010132  39.6784 320.4941 15.34390275  4211
KUIPER-00274            
1 67792U 26030AE  26063.00673926  .00020812  00000+0  67943-3 0  9996
2 67792  51.8814 246.9722 0017553  53.5125 306.7473 15.31589816  4218
KUIPER-00275            
1 67793U 26030AF  26062.98090013  .00042109  00000+0  12453-2 0  9991
2 67793  51.8836 246.8106 0008948  36.3668 323.7924 15.34466074  4210
KUIPER-00276            
1 67794U 26030AG  26063.01068779  .00020027  00000+0  65804-3 0  9995
2 67794  51.8812 246.9957 0018665  50.7357 309.5279 15.31388844  4212
KUIPER-00279            
1 67795U 26030AH  26062.97476083  .00032925  00000+0  95812-3 0  9993
2 67795  51.8794 246.7601 0006293  32.6075 327.5298 15.35111120  4212
